[{"OBJECT_NAME":"ALOS (DAICHI)","OBJECT_ID":"2006-002A","EPOCH":"2026-03-30T03:06:52.714656","MEAN_MOTION":14.69873006,"ECCENTRICITY":9.03e-5,"INCLINATION":98.1251,"RA_OF_ASC_NODE":44.9879,"ARG_OF_PERICENTER":109.6139,"MEAN_ANOMALY":250.5164,"EPHEMERIS_TYPE":0,"CLASSIFICATION_TYPE":"U","NORAD_CAT_ID":28931,"ELEMENT_SET_NO":999,"REV_AT_EPOCH":7648,"BSTAR":0.00029664,"MEAN_MOTION_DOT":1.724e-5,"MEAN_MOTION_DDOT":0},{"OBJECT_NAME":"H-2A R/B","OBJECT_ID":"2006-002B","EPOCH":"2026-03-30T04:39:11.331360","MEAN_MOTION":15.1687924,"ECCENTRICITY":0.0052453,"INCLINATION":98.2445,"RA_OF_ASC_NODE":237.9929,"ARG_OF_PERICENTER":170.8929,"MEAN_ANOMALY":189.3266,"EPHEMERIS_TYPE":0,"CLASSIFICATION_TYPE":"U","NORAD_CAT_ID":28932,"ELEMENT_SET_NO":999,"REV_AT_EPOCH":9754,"BSTAR":0.00067864,"MEAN_MOTION_DOT":0.00013779,"MEAN_MOTION_DDOT":0},{"OBJECT_NAME":"RESURS-DK 1","OBJECT_ID":"2006-021A","EPOCH":"2026-03-29T23:12:16.098336","MEAN_MOTION":15.12870937,"ECCENTRICITY":0.0001308,"INCLINATION":69.934,"RA_OF_ASC_NODE":184.5706,"ARG_OF_PERICENTER":50.0376,"MEAN_ANOMALY":310.0905,"EPHEMERIS_TYPE":0,"CLASSIFICATION_TYPE":"U","NORAD_CAT_ID":29228,"ELEMENT_SET_NO":999,"REV_AT_EPOCH":9059,"BSTAR":0.00017618,"MEAN_MOTION_DOT":2.999e-5,"MEAN_MOTION_DDOT":0},{"OBJECT_NAME":"CZ-4B R/B","OBJECT_ID":"2006-046C","EPOCH":"2026-03-30T01:22:25.432320","MEAN_MOTION":15.17111209,"ECCENTRICITY":0.0032826,"INCLINATION":97.5556,"RA_OF_ASC_NODE":133.91,"ARG_OF_PERICENTER":194.2544,"MEAN_ANOMALY":165.7767,"EPHEMERIS_TYPE":0,"CLASSIFICATION_TYPE":"U","NORAD_CAT_ID":29507,"ELEMENT_SET_NO":999,"REV_AT_EPOCH":6313,"BSTAR":0.00034785,"MEAN_MOTION_DOT":6.922e-5,"MEAN_MOTION_DDOT":0},{"OBJECT_NAME":"CZ-2C R/B","OBJECT_ID":"2007-010B","EPOCH":"2026-03-30T00:22:24.745152","MEAN_MOTION":14.20253604,"ECCENTRICITY":0.0058118,"INCLINATION":98.4,"RA_OF_ASC_NODE":201.2778,"ARG_OF_PERICENTER":234.3942,"MEAN_ANOMALY":125.1813,"EPHEMERIS_TYPE":0,"CLASSIFICATION_TYPE":"U","NORAD_CAT_ID":31114,"ELEMENT_SET_NO":999,"REV_AT_EPOCH":98260,"BSTAR":9.3554e-5,"MEAN_MOTION_DOT":1.62e-6,"MEAN_MOTION_DDOT":0},{"OBJECT_NAME":"COSMO-SKYMED 1","OBJECT_ID":"2007-023A","EPOCH":"2026-03-30T04:33:49.176000","MEAN_MOTION":14.96682992,"ECCENTRICITY":0.0001071,"INCLINATION":97.8869,"RA_OF_ASC_NODE":280.3897,"ARG_OF_PERICENTER":102.8205,"MEAN_ANOMALY":257.3135,"EPHEMERIS_TYPE":0,"CLASSIFICATION_TYPE":"U","NORAD_CAT_ID":31598,"ELEMENT_SET_NO":999,"REV_AT_EPOCH":1797,"BSTAR":0.00040696,"MEAN_MOTION_DOT":4.586e-5,"MEAN_MOTION_DDOT":0},{"OBJECT_NAME":"COSMOS 2428","OBJECT_ID":"2007-029A","EPOCH":"2026-03-30T04:57:52.220160","MEAN_MOTION":14.12948547,"ECCENTRICITY":0.0009702,"INCLINATION":70.9431,"RA_OF_ASC_NODE":160.2824,"ARG_OF_PERICENTER":255.8886,"MEAN_ANOMALY":104.1157,"EPHEMERIS_TYPE":0,"CLASSIFICATION_TYPE":"U","NORAD_CAT_ID":31792,"ELEMENT_SET_NO":999,"REV_AT_EPOCH":96699,"BSTAR":1.6956e-5,"MEAN_MOTION_DOT":-1.6e-7,"MEAN_MOTION_DDOT":0},{"OBJECT_NAME":"SL-16 R/B","OBJECT_ID":"2007-029B","EPOCH":"2026-03-30T05:01:25.523616","MEAN_MOTION":14.14843588,"ECCENTRICITY":0.000278,"INCLINATION":70.9747,"RA_OF_ASC_NODE":129.2526,"ARG_OF_PERICENTER":277.9697,"MEAN_ANOMALY":148.7918,"EPHEMERIS_TYPE":0,"CLASSIFICATION_TYPE":"U","NORAD_CAT_ID":31793,"ELEMENT_SET_NO":999,"REV_AT_EPOCH":96827,"BSTAR":1.6059e-5,"MEAN_MOTION_DOT":-1.7e-7,"MEAN_MOTION_DDOT":0},{"OBJECT_NAME":"KORONAS-FOTON","OBJECT_ID":"2009-003A","EPOCH":"2026-03-29T05:05:56.109408","MEAN_MOTION":15.43844729,"ECCENTRICITY":0.0011767,"INCLINATION":82.4275,"RA_OF_ASC_NODE":255.5703,"ARG_OF_PERICENTER":86.4859,"MEAN_ANOMALY":273.7734,"EPHEMERIS_TYPE":0,"CLASSIFICATION_TYPE":"U","NORAD_CAT_ID":33504,"ELEMENT_SET_NO":999,"REV_AT_EPOCH":94875,"BSTAR":0.00043009,"MEAN_MOTION_DOT":0.000196,"MEAN_MOTION_DDOT":0},{"OBJECT_NAME":"CZ-2C R/B","OBJECT_ID":"2011-030B","EPOCH":"2026-03-30T03:18:45.262368","MEAN_MOTION":14.81293988,"ECCENTRICITY":0.0051062,"INCLINATION":97.8579,"RA_OF_ASC_NODE":45.9974,"ARG_OF_PERICENTER":284.3585,"MEAN_ANOMALY":86.0812,"EPHEMERIS_TYPE":0,"CLASSIFICATION_TYPE":"U","NORAD_CAT_ID":37731,"ELEMENT_SET_NO":999,"REV_AT_EPOCH":79312,"BSTAR":0.0002355,"MEAN_MOTION_DOT":1.823e-5,"MEAN_MOTION_DDOT":0},{"OBJECT_NAME":"H-2A R/B","OBJECT_ID":"2012-025E","EPOCH":"2026-03-30T03:20:12.953184","MEAN_MOTION":14.9531371,"ECCENTRICITY":0.0042796,"INCLINATION":98.4764,"RA_OF_ASC_NODE":57.8288,"ARG_OF_PERICENTER":245.1796,"MEAN_ANOMALY":114.4968,"EPHEMERIS_TYPE":0,"CLASSIFICATION_TYPE":"U","NORAD_CAT_ID":38341,"ELEMENT_SET_NO":999,"REV_AT_EPOCH":75127,"BSTAR":0.00038405,"MEAN_MOTION_DOT":4.241e-5,"MEAN_MOTION_DDOT":0},{"OBJECT_NAME":"SHIJIAN-16 (SJ-16)","OBJECT_ID":"2013-057A","EPOCH":"2026-03-30T05:01:30.843264","MEAN_MOTION":14.92426889,"ECCENTRICITY":0.0015277,"INCLINATION":74.9725,"RA_OF_ASC_NODE":146.2441,"ARG_OF_PERICENTER":59.1517,"MEAN_ANOMALY":301.1172,"EPHEMERIS_TYPE":0,"CLASSIFICATION_TYPE":"U","NORAD_CAT_ID":39358,"ELEMENT_SET_NO":999,"REV_AT_EPOCH":67456,"BSTAR":0.00018377,"MEAN_MOTION_DOT":1.858e-5,"MEAN_MOTION_DDOT":0},{"OBJECT_NAME":"SL-4 R/B","OBJECT_ID":"2014-021B","EPOCH":"2026-03-30T03:23:14.581536","MEAN_MOTION":15.39903339,"ECCENTRICITY":0.0095266,"INCLINATION":51.6054,"RA_OF_ASC_NODE":237.4532,"ARG_OF_PERICENTER":177.5547,"MEAN_ANOMALY":182.5922,"EPHEMERIS_TYPE":0,"CLASSIFICATION_TYPE":"U","NORAD_CAT_ID":39679,"ELEMENT_SET_NO":999,"REV_AT_EPOCH":65942,"BSTAR":0.00050981,"MEAN_MOTION_DOT":0.00023819,"MEAN_MOTION_DDOT":0},{"OBJECT_NAME":"ALOS-2","OBJECT_ID":"2014-029A","EPOCH":"2026-03-30T05:04:32.975328","MEAN_MOTION":14.79453796,"ECCENTRICITY":0.0001861,"INCLINATION":97.9186,"RA_OF_ASC_NODE":187.5103,"ARG_OF_PERICENTER":104.8719,"MEAN_ANOMALY":255.2698,"EPHEMERIS_TYPE":0,"CLASSIFICATION_TYPE":"U","NORAD_CAT_ID":39766,"ELEMENT_SET_NO":999,"REV_AT_EPOCH":63990,"BSTAR":0.00043944,"MEAN_MOTION_DOT":3.23e-5,"MEAN_MOTION_DDOT":0},{"OBJECT_NAME":"YAOGAN-29","OBJECT_ID":"2015-069A","EPOCH":"2026-03-30T05:43:16.553856","MEAN_MOTION":14.83018306,"ECCENTRICITY":3.8e-5,"INCLINATION":98.0117,"RA_OF_ASC_NODE":117.7208,"ARG_OF_PERICENTER":357.8724,"MEAN_ANOMALY":2.2488,"EPHEMERIS_TYPE":0,"CLASSIFICATION_TYPE":"U","NORAD_CAT_ID":41038,"ELEMENT_SET_NO":999,"REV_AT_EPOCH":55892,"BSTAR":0.0001137,"MEAN_MOTION_DOT":8.7e-6,"MEAN_MOTION_DDOT":0},{"OBJECT_NAME":"ASTRO-H (HITOMI)","OBJECT_ID":"2016-012A","EPOCH":"2026-03-30T01:24:52.670880","MEAN_MOTION":15.1013325,"ECCENTRICITY":0.0009607,"INCLINATION":30.9989,"RA_OF_ASC_NODE":225.086,"ARG_OF_PERICENTER":176.799,"MEAN_ANOMALY":183.271,"EPHEMERIS_TYPE":0,"CLASSIFICATION_TYPE":"U","NORAD_CAT_ID":41337,"ELEMENT_SET_NO":999,"REV_AT_EPOCH":55531,"BSTAR":0.00024277,"MEAN_MOTION_DOT":4.156e-5,"MEAN_MOTION_DDOT":0},{"OBJECT_NAME":"HXMT (HUIYAN)","OBJECT_ID":"2017-034A","EPOCH":"2026-03-30T04:20:35.761344","MEAN_MOTION":15.17721569,"ECCENTRICITY":0.0031703,"INCLINATION":43.0133,"RA_OF_ASC_NODE":262.7275,"ARG_OF_PERICENTER":1.7163,"MEAN_ANOMALY":358.3789,"EPHEMERIS_TYPE":0,"CLASSIFICATION_TYPE":"U","NORAD_CAT_ID":42758,"ELEMENT_SET_NO":999,"REV_AT_EPOCH":48565,"BSTAR":0.00036128,"MEAN_MOTION_DOT":7.28e-5,"MEAN_MOTION_DDOT":0}]
